[{"OBJECT_NAME":"HELIOS 1B","OBJECT_ID":"1999-064A","EPOCH":"2026-03-20T11:24:09.294048","MEAN_MOTION":14.87738574,"ECCENTRICITY":0.00021912,"INCLINATION":98.1684,"RA_OF_ASC_NODE":342.0349,"ARG_OF_PERICENTER":59.8252,"MEAN_ANOMALY":300.318,"EPHEMERIS_TYPE":0,"CLASSIFICATION_TYPE":"U","NORAD_CAT_ID":25977,"ELEMENT_SET_NO":999,"REV_AT_EPOCH":68686,"BSTAR":0.00017042329,"MEAN_MOTION_DOT":1.495e-5,"MEAN_MOTION_DDOT":0},{"OBJECT_NAME":"TERRA","OBJECT_ID":"1999-068A","EPOCH":"2026-03-20T14:57:53.825760","MEAN_MOTION":14.61025606,"ECCENTRICITY":0.00032995,"INCLINATION":97.957,"RA_OF_ASC_NODE":132.6394,"ARG_OF_PERICENTER":128.1402,"MEAN_ANOMALY":32.8016,"EPHEMERIS_TYPE":0,"CLASSIFICATION_TYPE":"U","NORAD_CAT_ID":25994,"ELEMENT_SET_NO":999,"REV_AT_EPOCH":39667,"BSTAR":8.3229671e-5,"MEAN_MOTION_DOT":3.64e-6,"MEAN_MOTION_DDOT":0},{"OBJECT_NAME":"SL-16 R/B","OBJECT_ID":"2000-006B","EPOCH":"2026-03-20T09:33:26.613216","MEAN_MOTION":14.15823563,"ECCENTRICITY":0.0016194,"INCLINATION":71.0005,"RA_OF_ASC_NODE":75.3185,"ARG_OF_PERICENTER":173.4333,"MEAN_ANOMALY":186.7005,"EPHEMERIS_TYPE":0,"CLASSIFICATION_TYPE":"U","NORAD_CAT_ID":26070,"ELEMENT_SET_NO":999,"REV_AT_EPOCH":35007,"BSTAR":-1.5177834e-5,"MEAN_MOTION_DOT":-7.8e-7,"MEAN_MOTION_DDOT":0},{"OBJECT_NAME":"TITAN 4B R/B","OBJECT_ID":"2000-047B","EPOCH":"2026-03-20T10:19:07.831200","MEAN_MOTION":15.09659676,"ECCENTRICITY":0.00392132,"INCLINATION":67.9913,"RA_OF_ASC_NODE":10.3074,"ARG_OF_PERICENTER":22.693,"MEAN_ANOMALY":337.5942,"EPHEMERIS_TYPE":0,"CLASSIFICATION_TYPE":"U","NORAD_CAT_ID":26474,"ELEMENT_SET_NO":999,"REV_AT_EPOCH":39453,"BSTAR":0.00020511264,"MEAN_MOTION_DOT":3.232e-5,"MEAN_MOTION_DDOT":0},{"OBJECT_NAME":"ENVISAT","OBJECT_ID":"2002-009A","EPOCH":"2026-03-20T14:52:04.761120","MEAN_MOTION":14.39040633,"ECCENTRICITY":0.00012923,"INCLINATION":98.3747,"RA_OF_ASC_NODE":32.9577,"ARG_OF_PERICENTER":81.9943,"MEAN_ANOMALY":90.8201,"EPHEMERIS_TYPE":0,"CLASSIFICATION_TYPE":"U","NORAD_CAT_ID":27386,"ELEMENT_SET_NO":999,"REV_AT_EPOCH":26074,"BSTAR":4.8279131e-5,"MEAN_MOTION_DOT":1.06e-6,"MEAN_MOTION_DDOT":0},{"OBJECT_NAME":"IDEFIX & ARIANE 42P R/B","OBJECT_ID":"2002-021B","EPOCH":"2026-03-20T09:40:49.409760","MEAN_MOTION":14.31033038,"ECCENTRICITY":0.00121893,"INCLINATION":98.5882,"RA_OF_ASC_NODE":17.8822,"ARG_OF_PERICENTER":151.0115,"MEAN_ANOMALY":209.1748,"EPHEMERIS_TYPE":0,"CLASSIFICATION_TYPE":"U","NORAD_CAT_ID":27422,"ELEMENT_SET_NO":999,"REV_AT_EPOCH":24555,"BSTAR":0.00010246661,"MEAN_MOTION_DOT":2.26e-6,"MEAN_MOTION_DDOT":0},{"OBJECT_NAME":"AQUA","OBJECT_ID":"2002-022A","EPOCH":"2026-03-20T13:49:38.456256","MEAN_MOTION":14.62001186,"ECCENTRICITY":7.958e-5,"INCLINATION":98.4194,"RA_OF_ASC_NODE":47.1409,"ARG_OF_PERICENTER":113.3416,"MEAN_ANOMALY":358.1077,"EPHEMERIS_TYPE":0,"CLASSIFICATION_TYPE":"U","NORAD_CAT_ID":27424,"ELEMENT_SET_NO":999,"REV_AT_EPOCH":27032,"BSTAR":0.00018302156,"MEAN_MOTION_DOT":8.68e-6,"MEAN_MOTION_DDOT":0},{"OBJECT_NAME":"CZ-4B R/B","OBJECT_ID":"2002-024C","EPOCH":"2026-03-20T15:07:20.501760","MEAN_MOTION":14.14549584,"ECCENTRICITY":0.00499192,"INCLINATION":98.8814,"RA_OF_ASC_NODE":132.9805,"ARG_OF_PERICENTER":353.189,"MEAN_ANOMALY":160.4301,"EPHEMERIS_TYPE":0,"CLASSIFICATION_TYPE":"U","NORAD_CAT_ID":27432,"ELEMENT_SET_NO":999,"REV_AT_EPOCH":23078,"BSTAR":4.2639044e-5,"MEAN_MOTION_DOT":3.8e-7,"MEAN_MOTION_DDOT":0},{"OBJECT_NAME":"MIDORI II (ADEOS-II)","OBJECT_ID":"2002-056A","EPOCH":"2026-03-20T14:01:32.558304","MEAN_MOTION":14.29293047,"ECCENTRICITY":0.00011408,"INCLINATION":98.7789,"RA_OF_ASC_NODE":38.1386,"ARG_OF_PERICENTER":29.1884,"MEAN_ANOMALY":330.9361,"EPHEMERIS_TYPE":0,"CLASSIFICATION_TYPE":"U","NORAD_CAT_ID":27597,"ELEMENT_SET_NO":999,"REV_AT_EPOCH":21185,"BSTAR":0.00012564732,"MEAN_MOTION_DOT":2.74e-6,"MEAN_MOTION_DDOT":0},{"OBJECT_NAME":"H-2A R/B","OBJECT_ID":"2002-056E","EPOCH":"2026-03-20T09:28:17.430816","MEAN_MOTION":14.33767382,"ECCENTRICITY":0.00710811,"INCLINATION":98.3222,"RA_OF_ASC_NODE":39.3539,"ARG_OF_PERICENTER":129.0519,"MEAN_ANOMALY":343.3622,"EPHEMERIS_TYPE":0,"CLASSIFICATION_TYPE":"U","NORAD_CAT_ID":27601,"ELEMENT_SET_NO":999,"REV_AT_EPOCH":21564,"BSTAR":9.4275985e-5,"MEAN_MOTION_DOT":2.28e-6,"MEAN_MOTION_DDOT":0},{"OBJECT_NAME":"CZ-4B R/B","OBJECT_ID":"2003-049C","EPOCH":"2026-03-20T10:55:22.220256","MEAN_MOTION":14.55029562,"ECCENTRICITY":0.00477726,"INCLINATION":98.6889,"RA_OF_ASC_NODE":74.7831,"ARG_OF_PERICENTER":197.5565,"MEAN_ANOMALY":162.3982,"EPHEMERIS_TYPE":0,"CLASSIFICATION_TYPE":"U","NORAD_CAT_ID":28059,"ELEMENT_SET_NO":999,"REV_AT_EPOCH":18816,"BSTAR":7.8627946e-5,"MEAN_MOTION_DOT":2.92e-6,"MEAN_MOTION_DDOT":0},{"OBJECT_NAME":"CZ-2C R/B","OBJECT_ID":"2004-012C","EPOCH":"2026-03-20T03:47:51.059904","MEAN_MOTION":15.65689873,"ECCENTRICITY":0.0012937,"INCLINATION":97.72,"RA_OF_ASC_NODE":145.4513,"ARG_OF_PERICENTER":266.603,"MEAN_ANOMALY":93.3749,"EPHEMERIS_TYPE":0,"CLASSIFICATION_TYPE":"U","NORAD_CAT_ID":28222,"ELEMENT_SET_NO":999,"REV_AT_EPOCH":20591,"BSTAR":0.00041046893,"MEAN_MOTION_DOT":0.00041551,"MEAN_MOTION_DDOT":0},{"OBJECT_NAME":"SL-16 R/B","OBJECT_ID":"2004-021B","EPOCH":"2026-03-20T10:01:09.482304","MEAN_MOTION":14.14593572,"ECCENTRICITY":0.00045759,"INCLINATION":70.9998,"RA_OF_ASC_NODE":209.9789,"ARG_OF_PERICENTER":356.3058,"MEAN_ANOMALY":3.803,"EPHEMERIS_TYPE":0,"CLASSIFICATION_TYPE":"U","NORAD_CAT_ID":28353,"ELEMENT_SET_NO":999,"REV_AT_EPOCH":12435,"BSTAR":-7.0820486e-5,"MEAN_MOTION_DOT":-1.84e-6,"MEAN_MOTION_DDOT":0},{"OBJECT_NAME":"CZ-4B R/B","OBJECT_ID":"2004-035C","EPOCH":"2026-03-20T13:48:43.570656","MEAN_MOTION":15.29239279,"ECCENTRICITY":0.00301103,"INCLINATION":97.3474,"RA_OF_ASC_NODE":113.6877,"ARG_OF_PERICENTER":291.0268,"MEAN_ANOMALY":68.7752,"EPHEMERIS_TYPE":0,"CLASSIFICATION_TYPE":"U","NORAD_CAT_ID":28415,"ELEMENT_SET_NO":999,"REV_AT_EPOCH":18157,"BSTAR":0.00026128236,"MEAN_MOTION_DOT":7.436e-5,"MEAN_MOTION_DDOT":0},{"OBJECT_NAME":"CZ-2C R/B","OBJECT_ID":"2004-046B","EPOCH":"2026-03-20T11:51:38.149056","MEAN_MOTION":14.2699563,"ECCENTRICITY":0.01403907,"INCLINATION":98.198,"RA_OF_ASC_NODE":353.8053,"ARG_OF_PERICENTER":122.6605,"MEAN_ANOMALY":238.8211,"EPHEMERIS_TYPE":0,"CLASSIFICATION_TYPE":"U","NORAD_CAT_ID":28480,"ELEMENT_SET_NO":999,"REV_AT_EPOCH":11004,"BSTAR":5.9770944e-5,"MEAN_MOTION_DOT":1.22e-6,"MEAN_MOTION_DDOT":0},{"OBJECT_NAME":"ARIANE 5 R/B","OBJECT_ID":"2004-049H","EPOCH":"2026-03-20T09:52:34.308480","MEAN_MOTION":14.85284101,"ECCENTRICITY":0.00832328,"INCLINATION":98.2641,"RA_OF_ASC_NODE":248.271,"ARG_OF_PERICENTER":316.9557,"MEAN_ANOMALY":42.5166,"EPHEMERIS_TYPE":0,"CLASSIFICATION_TYPE":"U","NORAD_CAT_ID":28499,"ELEMENT_SET_NO":999,"REV_AT_EPOCH":14738,"BSTAR":7.5281169e-5,"MEAN_MOTION_DOT":6.21e-6,"MEAN_MOTION_DDOT":0},{"OBJECT_NAME":"CZ-2D R/B","OBJECT_ID":"2005-024B","EPOCH":"2026-03-20T06:56:07.828800","MEAN_MOTION":15.61045673,"ECCENTRICITY":0.0003983,"INCLINATION":97.3582,"RA_OF_ASC_NODE":94.8309,"ARG_OF_PERICENTER":16.3856,"MEAN_ANOMALY":343.753,"EPHEMERIS_TYPE":0,"CLASSIFICATION_TYPE":"U","NORAD_CAT_ID":28738,"ELEMENT_SET_NO":999,"REV_AT_EPOCH":14143,"BSTAR":0.0003545,"MEAN_MOTION_DOT":0.00029756,"MEAN_MOTION_DDOT":0}]
